TEVEL2-9                
1 63237U 25052AD  26204.20089581  .00018012  00000+0  56778-3 0  9999
2 63237  97.3892  99.4742 0006789  34.0281 326.1395 15.32925043 75548
TEVEL2-7                
1 63238U 25052AE  26204.51019685  .00017379  00000+0  55326-3 0  9995
2 63238  97.3894  99.6834 0006911  33.4573 326.7104 15.32614693 75583
TEVEL2-8                
1 63239U 25052AF  26204.45350643  .00016811  00000+0  53559-3 0  9997
2 63239  97.3896  99.6027 0006974  34.4342 325.7351 15.32597225 75577
INNOSAT 16 (RS92S7)     
1 64878U 25155C   26204.60033822  .00005885  00000+0  23261-3 0  9991
2 64878  97.4587 171.6267 0012186  63.4067 296.8418 15.25808116 86222
GEOSCAN 6 (RS92S6)      
1 64879U 25155D   26204.59883649  .00010987  00000+0  37128-3 0  9996
2 64879  97.4576 173.3136 0009482  58.4292 301.7873 15.30782985 86338
GEOSCAN 1 (RS92S1)      
1 64880U 25155E   26204.58631452  .00011906  00000+0  39399-3 0  9994
2 64880  97.4573 173.4823 0009440  58.8783 301.3383 15.31440905 86341
239ALFEROV (RS61S)      
1 64881U 25155F   26204.56652306  .00015208  00000+0  46590-3 0  9994
2 64881  97.4572 174.1520 0009114  59.1279 301.0859 15.33856081 86382
GEOSCAN 2 (RS92S2)      
1 64890U 25155Q   26204.57377803  .00011433  00000+0  37557-3 0  9990
2 64890  97.4571 173.6363 0008428  49.0349 311.1620 15.31697710 86358
GEOSCAN 5 (RS92S5)      
1 64891U 25155R   26204.54818804  .00014939  00000+0  45350-3 0  9993
2 64891  97.4563 174.2847 0008201  64.5736 295.6354 15.34156262 86394
GEOSCAN 4 (RS92S4)      
1 64892U 25155S   26204.59374439  .00015879  00000+0  47920-3 0  9999
2 64892  97.4568 174.3902 0008082  65.0574 295.1507 15.34331482 86402
GEOSCAN 3 (RS92S3)      
1 64893U 25155T   26204.60989831  .00019182  00000+0  53887-3 0  9990
2 64893  97.4555 174.9475 0008107  65.9788 294.2304 15.36543636 86441
INNOSAT 3 (RS92S0)      
1 64894U 25155U   26204.57927538  .00045090  00000+0  91038-3 0  9990
2 64894  97.4498 177.0201 0007617  72.4076 287.8005 15.46346741 86587
KNACKSAT-2              
1 67683U 98067XZ  26204.25230709  .00054830  00000+0  59136-3 0  9998
2 67683  51.6273 112.6377 0007453 354.3723   5.7186 15.63087127 25913
